{"fetched_at":"2026-07-15T06:35:37.596Z","source":"https://celestrak.org/NORAD/elements/gp.php?GROUP=planet&FORMAT=JSON","constellation":"superdove","records":[{"OBJECT_NAME":"FLOCK 4G-23","OBJECT_ID":"2025-009AQ","EPOCH":"2026-07-14T18:31:16.866336","CLASSIFICATION_TYPE":"U","MEAN_MOTION":15.34744966,"ECCENTRICITY":0.00031987,"INCLINATION":97.3933,"RA_OF_ASC_NODE":277.4598,"ARG_OF_PERICENTER":173.3887,"MEAN_ANOMALY":186.7399,"EPHEMERIS_TYPE":0,"NORAD_CAT_ID":62647,"ELEMENT_SET_NO":999,"REV_AT_EPOCH":8315,"BSTAR":0.00073849272,"MEAN_MOTION_DOT":0.00024847,"MEAN_MOTION_DDOT":0},{"OBJECT_NAME":"FLOCK 4G-34","OBJECT_ID":"2025-009AT","EPOCH":"2026-07-14T20:44:55.041216","CLASSIFICATION_TYPE":"U","MEAN_MOTION":15.29771453,"ECCENTRICITY":0.0002311,"INCLINATION":97.3966,"RA_OF_ASC_NODE":277.3158,"ARG_OF_PERICENTER":163.6372,"MEAN_ANOMALY":196.4943,"EPHEMERIS_TYPE":0,"NORAD_CAT_ID":62650,"ELEMENT_SET_NO":999,"REV_AT_EPOCH":8314,"BSTAR":0.00020122191,"MEAN_MOTION_DOT":0.00005726,"MEAN_MOTION_DDOT":0},{"OBJECT_NAME":"FLOCK 4G-21","OBJECT_ID":"2025-009AU","EPOCH":"2026-07-14T18:49:24.403872","CLASSIFICATION_TYPE":"U","MEAN_MOTION":15.32851652,"ECCENTRICITY":0.00032576,"INCLINATION":97.3997,"RA_OF_ASC_NODE":278.2365,"ARG_OF_PERICENTER":191.4407,"MEAN_ANOMALY":168.6762,"EPHEMERIS_TYPE":0,"NORAD_CAT_ID":62651,"ELEMENT_SET_NO":999,"REV_AT_EPOCH":8318,"BSTAR":0.00067215686,"MEAN_MOTION_DOT":0.00021286,"MEAN_MOTION_DDOT":0},{"OBJECT_NAME":"FLOCK 4G-31","OBJECT_ID":"2025-009AV","EPOCH":"2026-07-14T18:19:30.496224","CLASSIFICATION_TYPE":"U","MEAN_MOTION":15.29575129,"ECCENTRICITY":0.00018493,"INCLINATION":97.3972,"RA_OF_ASC_NODE":277.1873,"ARG_OF_PERICENTER":159.0035,"MEAN_ANOMALY":201.1282,"EPHEMERIS_TYPE":0,"NORAD_CAT_ID":62652,"ELEMENT_SET_NO":999,"REV_AT_EPOCH":8312,"BSTAR":0.0002141807,"MEAN_MOTION_DOT":0.00006063,"MEAN_MOTION_DDOT":0},{"OBJECT_NAME":"FLOCK 4G-4","OBJECT_ID":"2025-009BC","EPOCH":"2026-07-14T19:14:57.257376","CLASSIFICATION_TYPE":"U","MEAN_MOTION":15.32131169,"ECCENTRICITY":0.00046907,"INCLINATION":97.395,"RA_OF_ASC_NODE":277.0364,"ARG_OF_PERICENTER":193.8347,"MEAN_ANOMALY":166.2767,"EPHEMERIS_TYPE":0,"NORAD_CAT_ID":62659,"ELEMENT_SET_NO":999,"REV_AT_EPOCH":14073,"BSTAR":0.00067786506,"MEAN_MOTION_DOT":0.00020992,"MEAN_MOTION_DDOT":0},{"OBJECT_NAME":"FLOCK 4G-6","OBJECT_ID":"2025-009BD","EPOCH":"2026-07-14T18:04:04.487808","CLASSIFICATION_TYPE":"U","MEAN_MOTION":15.29973183,"ECCENTRICITY":0.0002835,"INCLINATION":97.3945,"RA_OF_ASC_NODE":277.0285,"ARG_OF_PERICENTER":202.9055,"MEAN_ANOMALY":157.2059,"EPHEMERIS_TYPE":0,"NORAD_CAT_ID":62660,"ELEMENT_SET_NO":999,"REV_AT_EPOCH":14071,"BSTAR":0.00019698524,"MEAN_MOTION_DOT":0.00005639,"MEAN_MOTION_DDOT":0},{"OBJECT_NAME":"FLOCK 4G-2","OBJECT_ID":"2025-009BE","EPOCH":"2026-07-14T19:29:09.698784","CLASSIFICATION_TYPE":"U","MEAN_MOTION":15.30323866,"ECCENTRICITY":0.00037124,"INCLINATION":97.4012,"RA_OF_ASC_NODE":277.7286,"ARG_OF_PERICENTER":203.2674,"MEAN_ANOMALY":156.8399,"EPHEMERIS_TYPE":0,"NORAD_CAT_ID":62661,"ELEMENT_SET_NO":999,"REV_AT_EPOCH":14075,"BSTAR":0.00020801104,"MEAN_MOTION_DOT":0.00006025,"MEAN_MOTION_DDOT":0},{"OBJECT_NAME":"FLOCK 4G-5","OBJECT_ID":"2025-009BG","EPOCH":"2026-07-14T19:22:02.680608","CLASSIFICATION_TYPE":"U","MEAN_MOTION":15.30901845,"ECCENTRICITY":0.00034503,"INCLINATION":97.4028,"RA_OF_ASC_NODE":278.1234,"ARG_OF_PERICENTER":183.2529,"MEAN_ANOMALY":176.869,"EPHEMERIS_TYPE":0,"NORAD_CAT_ID":62663,"ELEMENT_SET_NO":999,"REV_AT_EPOCH":8316,"BSTAR":0.00017349761,"MEAN_MOTION_DOT":0.00005103,"MEAN_MOTION_DDOT":0},{"OBJECT_NAME":"FLOCK 4G-1","OBJECT_ID":"2025-009BK","EPOCH":"2026-07-14T17:33:11.104128","CLASSIFICATION_TYPE":"U","MEAN_MOTION":15.30182907,"ECCENTRICITY":0.00039476,"INCLINATION":97.4027,"RA_OF_ASC_NODE":277.6275,"ARG_OF_PERICENTER":200.3821,"MEAN_ANOMALY":159.7262,"EPHEMERIS_TYPE":0,"NORAD_CAT_ID":62666,"ELEMENT_SET_NO":999,"REV_AT_EPOCH":8312,"BSTAR":0.00020076412,"MEAN_MOTION_DOT":0.00005787,"MEAN_MOTION_DDOT":0},{"OBJECT_NAME":"FLOCK 4G-14","OBJECT_ID":"2025-009BL","EPOCH":"2026-07-14T18:17:46.894848","CLASSIFICATION_TYPE":"U","MEAN_MOTION":15.29729849,"ECCENTRICITY":0.00041319,"INCLINATION":97.4026,"RA_OF_ASC_NODE":277.4553,"ARG_OF_PERICENTER":195.5525,"MEAN_ANOMALY":164.5589,"EPHEMERIS_TYPE":0,"NORAD_CAT_ID":62667,"ELEMENT_SET_NO":999,"REV_AT_EPOCH":8311,"BSTAR":0.00021585854,"MEAN_MOTION_DOT":0.00006141,"MEAN_MOTION_DDOT":0},{"OBJECT_NAME":"FLOCK 4G-10","OBJECT_ID":"2025-009BP","EPOCH":"2026-07-14T18:33:32.329440","CLASSIFICATION_TYPE":"U","MEAN_MOTION":15.29833168,"ECCENTRICITY":0.00036374,"INCLINATION":97.3926,"RA_OF_ASC_NODE":276.7641,"ARG_OF_PERICENTER":214.4547,"MEAN_ANOMALY":145.6458,"EPHEMERIS_TYPE":0,"NORAD_CAT_ID":62670,"ELEMENT_SET_NO":999,"REV_AT_EPOCH":14075,"BSTAR":0.00022792898,"MEAN_MOTION_DOT":0.0000651,"MEAN_MOTION_DDOT":0},{"OBJECT_NAME":"FLOCK 4G-36","OBJECT_ID":"2025-009BU","EPOCH":"2026-07-14T23:08:13.062912","CLASSIFICATION_TYPE":"U","MEAN_MOTION":15.29808169,"ECCENTRICITY":0.00042955,"INCLINATION":97.4015,"RA_OF_ASC_NODE":277.5778,"ARG_OF_PERICENTER":200.7463,"MEAN_ANOMALY":159.3603,"EPHEMERIS_TYPE":0,"NORAD_CAT_ID":62675,"ELEMENT_SET_NO":999,"REV_AT_EPOCH":8314,"BSTAR":0.00023087327,"MEAN_MOTION_DOT":0.0000659,"MEAN_MOTION_DDOT":0},{"OBJECT_NAME":"FLOCK 4G-15","OBJECT_ID":"2025-009BX","EPOCH":"2026-07-14T18:35:40.020000","CLASSIFICATION_TYPE":"U","MEAN_MOTION":15.29895907,"ECCENTRICITY":0.00045354,"INCLINATION":97.4019,"RA_OF_ASC_NODE":277.5318,"ARG_OF_PERICENTER":198.1295,"MEAN_ANOMALY":161.9785,"EPHEMERIS_TYPE":0,"NORAD_CAT_ID":62678,"ELEMENT_SET_NO":999,"REV_AT_EPOCH":14076,"BSTAR":0.00023235409,"MEAN_MOTION_DOT":0.00006651,"MEAN_MOTION_DDOT":0},{"OBJECT_NAME":"FLOCK 4G-30","OBJECT_ID":"2025-009BY","EPOCH":"2026-07-14T04:44:11.632704","CLASSIFICATION_TYPE":"U","MEAN_MOTION":15.33905273,"ECCENTRICITY":0.00042876,"INCLINATION":97.3925,"RA_OF_ASC_NODE":276.474,"ARG_OF_PERICENTER":199.5117,"MEAN_ANOMALY":160.5962,"EPHEMERIS_TYPE":0,"NORAD_CAT_ID":62679,"ELEMENT_SET_NO":999,"REV_AT_EPOCH":14068,"BSTAR":0.00075996277,"MEAN_MOTION_DOT":0.00024904,"MEAN_MOTION_DDOT":0},{"OBJECT_NAME":"FLOCK 4G-18","OBJECT_ID":"2025-009BZ","EPOCH":"2026-07-14T20:43:43.731840","CLASSIFICATION_TYPE":"U","MEAN_MOTION":15.32189513,"ECCENTRICITY":0.00061362,"INCLINATION":97.4012,"RA_OF_ASC_NODE":277.5373,"ARG_OF_PERICENTER":211.8723,"MEAN_ANOMALY":148.2148,"EPHEMERIS_TYPE":0,"NORAD_CAT_ID":62680,"ELEMENT_SET_NO":999,"REV_AT_EPOCH":14077,"BSTAR":0.00068676432,"MEAN_MOTION_DOT":0.00021313,"MEAN_MOTION_DDOT":0},{"OBJECT_NAME":"FLOCK 4G-17","OBJECT_ID":"2025-009CA","EPOCH":"2026-07-14T17:39:33.713568","CLASSIFICATION_TYPE":"U","MEAN_MOTION":15.30078205,"ECCENTRICITY":0.00040658,"INCLINATION":97.3925,"RA_OF_ASC_NODE":276.9644,"ARG_OF_PERICENTER":215.3155,"MEAN_ANOMALY":144.7817,"EPHEMERIS_TYPE":0,"NORAD_CAT_ID":62681,"ELEMENT_SET_NO":999,"REV_AT_EPOCH":14076,"BSTAR":0.00020808894,"MEAN_MOTION_DOT":0.00005982,"MEAN_MOTION_DDOT":0}]}
