FLOCK 4G-23             
1 62647U 25009AQ  26195.77172299  .00024847  00000+0  73849-3 0  9996
2 62647  97.3933 277.4598 0003198 173.3887 186.7399 15.34744966 83150
FLOCK 4G-34             
1 62650U 25009AT  26195.86452594  .00005726  00000+0  20122-3 0  9990
2 62650  97.3966 277.3158 0002311 163.6372 196.4943 15.29771453 83145
FLOCK 4G-21             
1 62651U 25009AU  26195.78431023  .00021286  00000+0  67216-3 0  9990
2 62651  97.3997 278.2365 0003257 191.4407 168.6762 15.32851652 83186
FLOCK 4G-31             
1 62652U 25009AV  26195.76354741  .00006063  00000+0  21418-3 0  9990
2 62652  97.3972 277.1873 0001849 159.0035 201.1282 15.29575129 83126
FLOCK 4G-4              
1 62659U 25009BC  26195.80205159  .00020992  00000+0  67787-3 0  9996
2 62659  97.3950 277.0364 0004690 193.8347 166.2767 15.32131169140738
FLOCK 4G-6              
1 62660U 25009BD  26195.75282972  .00005639  00000+0  19699-3 0  9990
2 62660  97.3945 277.0285 0002835 202.9055 157.2059 15.29973183140711
FLOCK 4G-2              
1 62661U 25009BE  26195.81191781  .00006025  00000+0  20801-3 0  9992
2 62661  97.4012 277.7286 0003712 203.2674 156.8399 15.30323866140757
FLOCK 4G-5              
1 62663U 25009BG  26195.80697547  .00005103  00000+0  17350-3 0  9995
2 62663  97.4028 278.1234 0003450 183.2529 176.8690 15.30901845 83165
FLOCK 4G-1              
1 62666U 25009BK  26195.73137852  .00005787  00000+0  20076-3 0  9995
2 62666  97.4027 277.6275 0003947 200.3821 159.7262 15.30182907 83124
FLOCK 4G-14             
1 62667U 25009BL  26195.76234832  .00006141  00000+0  21586-3 0  9997
2 62667  97.4026 277.4553 0004131 195.5525 164.5589 15.29729849 83118
FLOCK 4G-10             
1 62670U 25009BP  26195.77329085  .00006510  00000+0  22793-3 0  9998
2 62670  97.3926 276.7641 0003637 214.4547 145.6458 15.29833168140754
FLOCK 4G-36             
1 62675U 25009BU  26195.96404008  .00006590  00000+0  23087-3 0  9998
2 62675  97.4015 277.5778 0004295 200.7463 159.3603 15.29808169 83141
FLOCK 4G-15             
1 62678U 25009BX  26195.77476875  .00006651  00000+0  23235-3 0  9994
2 62678  97.4019 277.5318 0004535 198.1295 161.9785 15.29895907140766
FLOCK 4G-30             
1 62679U 25009BY  26195.19735686  .00024904  00000+0  75996-3 0  9991
2 62679  97.3925 276.4740 0004287 199.5117 160.5962 15.33905273140687
FLOCK 4G-18             
1 62680U 25009BZ  26195.86370060  .00021313  00000+0  68676-3 0  9996
2 62680  97.4012 277.5373 0006136 211.8723 148.2148 15.32189513140776
FLOCK 4G-17             
1 62681U 25009CA  26195.73580687  .00005982  00000+0  20809-3 0  9991
2 62681  97.3925 276.9644 0004065 215.3155 144.7817 15.30078205140766
